[{"OBJECT_NAME":"NUSAT-44 (MARIA MITCHELL)","OBJECT_ID":"2024-043AA","EPOCH":"2026-03-09T22:12:18.524160","MEAN_MOTION":15.29764305,"ECCENTRICITY":0.0007331,"INCLINATION":97.5299,"RA_OF_ASC_NODE":207.7691,"ARG_OF_PERICENTER":214.9017,"MEAN_ANOMALY":145.1743,"EPHEMERIS_TYPE":0,"CLASSIFICATION_TYPE":"U","NORAD_CAT_ID":59122,"ELEMENT_SET_NO":999,"REV_AT_EPOCH":11209,"BSTAR":0.00061063193,"MEAN_MOTION_DOT":0.00017562,"MEAN_MOTION_DDOT":0},{"OBJECT_NAME":"STARLINK-35795","OBJECT_ID":"2025-254X","EPOCH":"2026-03-09T22:00:01.999584","MEAN_MOTION":15.30165131,"ECCENTRICITY":0.00011963,"INCLINATION":53.1563,"RA_OF_ASC_NODE":229.1693,"ARG_OF_PERICENTER":79.1171,"MEAN_ANOMALY":194.0696,"EPHEMERIS_TYPE":0,"CLASSIFICATION_TYPE":"U","NORAD_CAT_ID":66369,"ELEMENT_SET_NO":999,"REV_AT_EPOCH":586,"BSTAR":0.0021030345,"MEAN_MOTION_DOT":0.00062383,"MEAN_MOTION_DDOT":0}]
